[{"OBJECT_NAME":"STARLINK-4178","OBJECT_ID":"2022-086AM","EPOCH":"2026-03-09T14:50:42.829728","MEAN_MOTION":15.08836765,"ECCENTRICITY":0.0001282,"INCLINATION":53.2181,"RA_OF_ASC_NODE":184.4725,"ARG_OF_PERICENTER":82.3067,"MEAN_ANOMALY":277.8071,"EPHEMERIS_TYPE":0,"CLASSIFICATION_TYPE":"U","NORAD_CAT_ID":53277,"ELEMENT_SET_NO":999,"REV_AT_EPOCH":20118,"BSTAR":1.3252e-5,"MEAN_MOTION_DOT":-7.7e-7,"MEAN_MOTION_DDOT":0},{"OBJECT_NAME":"CICERO 3","OBJECT_ID":"2017-042AA","EPOCH":"2026-03-09T22:34:09.559488","MEAN_MOTION":15.06999011,"ECCENTRICITY":0.00123402,"INCLINATION":97.4153,"RA_OF_ASC_NODE":238.2133,"ARG_OF_PERICENTER":85.148,"MEAN_ANOMALY":275.1157,"EPHEMERIS_TYPE":0,"CLASSIFICATION_TYPE":"U","NORAD_CAT_ID":42849,"ELEMENT_SET_NO":999,"REV_AT_EPOCH":47226,"BSTAR":0.00039473976,"MEAN_MOTION_DOT":5.861e-5,"MEAN_MOTION_DDOT":0}]
